[{"ORDINAL":"2","COMMENT":"GENERATED VIA SPACETRACK.ORG API","ORIGINATOR":"JSPOC","NORAD_CAT_ID":"40149","OBJECT_NAME":"ARIANE 5 DEB (SYLDA)","OBJECT_TYPE":"DEBRIS","CLASSIFICATION_TYPE":"U","INTLDES":"14054D","EPOCH":"2014-12-04 00:06:16","EPOCH_MICROSECONDS":"594271","MEAN_MOTION":"2.31372699","ECCENTRICITY":"0.7243329","INCLINATION":"6.0052","RA_OF_ASC_NODE":"114.3249","ARG_OF_PERICENTER":"246.6974","MEAN_ANOMALY":"25.7196","EPHEMERIS_TYPE":"0","ELEMENT_SET_NO":"77","REV_AT_EPOCH":"191","BSTAR":"0.0069162","MEAN_MOTION_DOT":"0.00014785","MEAN_MOTION_DDOT":"0","FILE":"1788033","TLE_LINE0":"0 ARIANE 5 DEB (SYLDA)","TLE_LINE1":"1 40149U 14054D   14338.00435873  .00014785  00000-0  69162-2 0   779","TLE_LINE2":"2 40149 006.0052 114.3249 7243329 246.6974 025.7196 02.31372699  1918","OBJECT_ID":"2014-054D","OBJECT_NUMBER":"40149"},{"ORDINAL":"3","COMMENT":"GENERATED VIA SPACETRACK.ORG API","ORIGINATOR":"JSPOC","NORAD_CAT_ID":"39619","OBJECT_NAME":"ARIANE 5 DEB (SYLDA)","OBJECT_TYPE":"DEBRIS","CLASSIFICATION_TYPE":"U","INTLDES":"14011D","EPOCH":"2014-12-04 00:01:35","EPOCH_MICROSECONDS":"171328","MEAN_MOTION":"2.48922226","ECCENTRICITY":"0.7134548","INCLINATION":"2.6341","RA_OF_ASC_NODE":"233.1089","ARG_OF_PERICENTER":"32.3411","MEAN_ANOMALY":"356.0212","EPHEMERIS_TYPE":"0","ELEMENT_SET_NO":"254","REV_AT_EPOCH":"596","BSTAR":"0.020041","MEAN_MOTION_DOT":"0.00195085","MEAN_MOTION_DDOT":"0","FILE":"1788060","TLE_LINE0":"0 ARIANE 5 DEB (SYLDA)","TLE_LINE1":"1 39619U 14011D   14338.00110152  .00195085  00000-0  20041-1 0  2544","TLE_LINE2":"2 39619 002.6341 233.1089 7134548 032.3411 356.0212 02.48922226  5964","OBJECT_ID":"2014-011D","OBJECT_NUMBER":"39619"},{"ORDINAL":"1","COMMENT":"GENERATED VIA SPACETRACK.ORG API","ORIGINATOR":"JSPOC","NORAD_CAT_ID":"40260","OBJECT_NAME":"BREEZE-M DEB (TANK)","OBJECT_TYPE":"DEBRIS","CLASSIFICATION_TYPE":"U","INTLDES":"14058C","EPOCH":"2014-12-03 22:45:46","EPOCH_MICROSECONDS":"982016","MEAN_MOTION":"2.27046657","ECCENTRICITY":"0.7199562","INCLINATION":"46.1216","RA_OF_ASC_NODE":"303.1251","ARG_OF_PERICENTER":"18.0566","MEAN_ANOMALY":"357.8205","EPHEMERIS_TYPE":"0","ELEMENT_SET_NO":"40","REV_AT_EPOCH":"149","BSTAR":"0.00083842","MEAN_MOTION_DOT":"1e-06","MEAN_MOTION_DDOT":"0","FILE":"1788085","TLE_LINE0":"0 BREEZE-M DEB (TANK)","TLE_LINE1":"1 40260U 14058C   14337.94846044  .00000100  00000-0  83842-3 0   403","TLE_LINE2":"2 40260 046.1216 303.1251 7199562 018.0566 357.8205 02.27046657  1497","OBJECT_ID":"2014-058C","OBJECT_NUMBER":"40260"},{"ORDINAL":"1","COMMENT":"GENERATED VIA SPACETRACK.ORG API","ORIGINATOR":"JSPOC","NORAD_CAT_ID":"40289","OBJECT_NAME":"CZ-2C DEB","OBJECT_TYPE":"DEBRIS","CLASSIFICATION_TYPE":"U","INTLDES":"14066D","EPOCH":"2014-12-03 21:28:11","EPOCH_MICROSECONDS":"785440","MEAN_MOTION":"14.46888624","ECCENTRICITY":"0.0114891","INCLINATION":"98.4353","RA_OF_ASC_NODE":"91.9262","ARG_OF_PERICENTER":"109.5442","MEAN_ANOMALY":"251.8199","EPHEMERIS_TYPE":"0","ELEMENT_SET_NO":"45","REV_AT_EPOCH":"543","BSTAR":"0.0018537","MEAN_MOTION_DOT":"7.263e-05","MEAN_MOTION_DDOT":"0","FILE":"1787807","TLE_LINE0":"0 CZ-2C DEB","TLE_LINE1":"1 40289U 14066D   14337.89458085  .00007263  00000-0  18537-2 0   451","TLE_LINE2":"2 40289 098.4353 091.9262 0114891 109.5442 251.8199 14.46888624  5433","OBJECT_ID":"2014-066D","OBJECT_NUMBER":"40289"},{"ORDINAL":"4","COMMENT":"GENERATED VIA SPACETRACK.ORG API","ORIGINATOR":"JSPOC","NORAD_CAT_ID":"40307","OBJECT_NAME":"CZ-2C DEB","OBJECT_TYPE":"DEBRIS","CLASSIFICATION_TYPE":"U","INTLDES":"14071C","EPOCH":"2014-12-03 21:19:04","EPOCH_MICROSECONDS":"533024","MEAN_MOTION":"15.67809473","ECCENTRICITY":"0.0086745","INCLINATION":"97.1035","RA_OF_ASC_NODE":"282.8146","ARG_OF_PERICENTER":"224.7508","MEAN_ANOMALY":"134.6706","EPHEMERIS_TYPE":"0","ELEMENT_SET_NO":"49","REV_AT_EPOCH":"296","BSTAR":"0.0080435","MEAN_MOTION_DOT":"0.01220492","MEAN_MOTION_DDOT":"0","FILE":"1787814","TLE_LINE0":"0 CZ-2C DEB","TLE_LINE1":"1 40307U 14071C   14337.88824691  .01220492  00000-0  80435-2 0   499","TLE_LINE2":"2 40307 097.1035 282.8146 0086745 224.7508 134.6706 15.67809473  2964","OBJECT_ID":"2014-071C","OBJECT_NUMBER":"40307"},{"ORDINAL":"1","COMMENT":"GENERATED VIA SPACETRACK.ORG API","ORIGINATOR":"JSPOC","NORAD_CAT_ID":"39629","OBJECT_NAME":"CZ-2C DEB","OBJECT_TYPE":"DEBRIS","CLASSIFICATION_TYPE":"U","INTLDES":"14014F","EPOCH":"2014-12-03 20:18:46","EPOCH_MICROSECONDS":"605600","MEAN_MOTION":"14.21958947","ECCENTRICITY":"0.018064","INCLINATION":"98.469","RA_OF_ASC_NODE":"22.2963","ARG_OF_PERICENTER":"172.002","MEAN_ANOMALY":"188.4108","EPHEMERIS_TYPE":"0","ELEMENT_SET_NO":"139","REV_AT_EPOCH":"3519","BSTAR":"0.00084456","MEAN_MOTION_DOT":"2.159e-05","MEAN_MOTION_DDOT":"0","FILE":"1787903","TLE_LINE0":"0 CZ-2C DEB","TLE_LINE1":"1 39629U 14014F   14337.84637275  .00002159  00000-0  84456-3 0  1392","TLE_LINE2":"2 39629 098.4690 022.2963 0180640 172.0020 188.4108 14.21958947 35190","OBJECT_ID":"2014-014F","OBJECT_NUMBER":"39629"},{"ORDINAL":"2","COMMENT":"GENERATED VIA SPACETRACK.ORG API","ORIGINATOR":"JSPOC","NORAD_CAT_ID":"39511","OBJECT_NAME":"ARIANE 5 DEB (SYLDA)","OBJECT_TYPE":"DEBRIS","CLASSIFICATION_TYPE":"U","INTLDES":"14006D","EPOCH":"2014-12-03 19:38:26","EPOCH_MICROSECONDS":"740320","MEAN_MOTION":"2.5255989","ECCENTRICITY":"0.7098302","INCLINATION":"5.6583","RA_OF_ASC_NODE":"153.2362","ARG_OF_PERICENTER":"78.4696","MEAN_ANOMALY":"347.5417","EPHEMERIS_TYPE":"0","ELEMENT_SET_NO":"316","REV_AT_EPOCH":"704","BSTAR":"0.018011","MEAN_MOTION_DOT":"0.00112627","MEAN_MOTION_DDOT":"0","FILE":"1787988","TLE_LINE0":"0 ARIANE 5 DEB (SYLDA)","TLE_LINE1":"1 39511U 14006D   14337.81836505  .00112627  00000-0  18011-1 0  3168","TLE_LINE2":"2 39511 005.6583 153.2362 7098302 078.4696 347.5417 02.52559890  7046","OBJECT_ID":"2014-006D","OBJECT_NUMBER":"39511"},{"ORDINAL":"1","COMMENT":"GENERATED VIA SPACETRACK.ORG API","ORIGINATOR":"JSPOC","NORAD_CAT_ID":"39627","OBJECT_NAME":"CZ-2C DEB","OBJECT_TYPE":"DEBRIS","CLASSIFICATION_TYPE":"U","INTLDES":"14014D","EPOCH":"2014-12-03 19:30:55","EPOCH_MICROSECONDS":"353887","MEAN_MOTION":"14.20531269","ECCENTRICITY":"0.0185782","INCLINATION":"98.0606","RA_OF_ASC_NODE":"10.4409","ARG_OF_PERICENTER":"164.0787","MEAN_ANOMALY":"196.6341","EPHEMERIS_TYPE":"0","ELEMENT_SET_NO":"139","REV_AT_EPOCH":"3515","BSTAR":"0.00087082","MEAN_MOTION_DOT":"2.188e-05","MEAN_MOTION_DDOT":"0","FILE":"1787903","TLE_LINE0":"0 CZ-2C DEB","TLE_LINE1":"1 39627U 14014D   14337.81314067  .00002188  00000-0  87082-3 0  1398","TLE_LINE2":"2 39627 098.0606 010.4409 0185782 164.0787 196.6341 14.20531269 35157","OBJECT_ID":"2014-014D","OBJECT_NUMBER":"39627"},{"ORDINAL":"2","COMMENT":"GENERATED VIA SPACETRACK.ORG API","ORIGINATOR":"JSPOC","NORAD_CAT_ID":"39730","OBJECT_NAME":"BREEZE-M DEB (TANK)","OBJECT_TYPE":"DEBRIS","CLASSIFICATION_TYPE":"U","INTLDES":"14023D","EPOCH":"2014-12-03 19:10:15","EPOCH_MICROSECONDS":"950207","MEAN_MOTION":"2.29481612","ECCENTRICITY":"0.7287372","INCLINATION":"47.0508","RA_OF_ASC_NODE":"229.7039","ARG_OF_PERICENTER":"57.9058","MEAN_ANOMALY":"352.7248","EPHEMERIS_TYPE":"0","ELEMENT_SET_NO":"187","REV_AT_EPOCH":"500","BSTAR":"0.0025024","MEAN_MOTION_DOT":"0.00023942","MEAN_MOTION_DDOT":"0","FILE":"1787944","TLE_LINE0":"0 BREEZE-M DEB (TANK)","TLE_LINE1":"1 39730U 14023D   14337.79879572  .00023942  00000-0  25024-2 0  1878","TLE_LINE2":"2 39730 047.0508 229.7039 7287372 057.9058 352.7248 02.29481612  5001","OBJECT_ID":"2014-023D","OBJECT_NUMBER":"39730"},{"ORDINAL":"1","COMMENT":"GENERATED VIA SPACETRACK.ORG API","ORIGINATOR":"JSPOC","NORAD_CAT_ID":"40309","OBJECT_NAME":"CZ-2C DEB","OBJECT_TYPE":"DEBRIS","CLASSIFICATION_TYPE":"U","INTLDES":"14071E","EPOCH":"2014-12-03 18:59:04","EPOCH_MICROSECONDS":"274015","MEAN_MOTION":"14.99568729","ECCENTRICITY":"0.0128746","INCLINATION":"97.1275","RA_OF_ASC_NODE":"281.2469","ARG_OF_PERICENTER":"138.9255","MEAN_ANOMALY":"222.198","EPHEMERIS_TYPE":"0","ELEMENT_SET_NO":"24","REV_AT_EPOCH":"284","BSTAR":"0.0029467","MEAN_MOTION_DOT":"0.00043297","MEAN_MOTION_DDOT":"0","FILE":"1787994","TLE_LINE0":"0 CZ-2C DEB","TLE_LINE1":"1 40309U 14071E   14337.79102169  .00043297  00000-0  29467-2 0   246","TLE_LINE2":"2 40309 097.1275 281.2469 0128746 138.9255 222.1980 14.99568729  2840","OBJECT_ID":"2014-071E","OBJECT_NUMBER":"40309"},{"ORDINAL":"4","COMMENT":"GENERATED VIA SPACETRACK.ORG API","ORIGINATOR":"JSPOC","NORAD_CAT_ID":"40308","OBJECT_NAME":"CZ-2C DEB","OBJECT_TYPE":"DEBRIS","CLASSIFICATION_TYPE":"U","INTLDES":"14071D","EPOCH":"2014-12-03 18:47:53","EPOCH_MICROSECONDS":"280383","MEAN_MOTION":"15.61338774","ECCENTRICITY":"0.0096875","INCLINATION":"97.5098","RA_OF_ASC_NODE":"283.6544","ARG_OF_PERICENTER":"228.1751","MEAN_ANOMALY":"131.1156","EPHEMERIS_TYPE":"0","ELEMENT_SET_NO":"39","REV_AT_EPOCH":"294","BSTAR":"0.0055579","MEAN_MOTION_DOT":"0.00633559","MEAN_MOTION_DDOT":"0","FILE":"1787814","TLE_LINE0":"0 CZ-2C DEB","TLE_LINE1":"1 40308U 14071D   14337.78325556  .00633559  00000-0  55579-2 0   396","TLE_LINE2":"2 40308 097.5098 283.6544 0096875 228.1751 131.1156 15.61338774  2946","OBJECT_ID":"2014-071D","OBJECT_NUMBER":"40308"},{"ORDINAL":"1","COMMENT":"GENERATED VIA SPACETRACK.ORG API","ORIGINATOR":"JSPOC","NORAD_CAT_ID":"40048","OBJECT_NAME":"SL-24 DEB","OBJECT_TYPE":"DEBRIS","CLASSIFICATION_TYPE":"U","INTLDES":"14033AQ","EPOCH":"2014-12-03 16:54:52","EPOCH_MICROSECONDS":"55424","MEAN_MOTION":"14.99385268","ECCENTRICITY":"0.0040739","INCLINATION":"97.9797","RA_OF_ASC_NODE":"235.7392","ARG_OF_PERICENTER":"154.1428","MEAN_ANOMALY":"206.1863","EPHEMERIS_TYPE":"0","ELEMENT_SET_NO":"210","REV_AT_EPOCH":"2495","BSTAR":"0.001765","MEAN_MOTION_DOT":"0.00021969","MEAN_MOTION_DDOT":"0","FILE":"1787979","TLE_LINE0":"0 SL-24 DEB","TLE_LINE1":"1 40048U 14033AQ  14337.70476916  .00021969  00000-0  17650-2 0  2109","TLE_LINE2":"2 40048 097.9797 235.7392 0040739 154.1428 206.1863 14.99385268 24956","OBJECT_ID":"2014-033AQ","OBJECT_NUMBER":"40048"}]